provider_id,provider_name,type,address,city,state
PR001,Nunez-Mitchell,TPC,"415 Levine Shoal, Brandonbury, UT 68213",West Carla,MS
PR002,Campbell-Perez,Agent,"USCGC Preston, FPO AP 16607",Brookshaven,IN
PR003,"Morton, Reyes and Allen",Hospital,"70586 Alison Parks, Josephchester, UT 08149",Lake Olivia,MI
PR004,Wright and Sons,TPC,"84802 Michelle Stravenue, Schaeferburgh, WV 73897",Port Bonnie,WA
PR005,Warren LLC,Agent,"730 Jackson Parkways, Lewisside, NM 14006",Port Christopher,CO
PR006,Nixon and Sons,TPC,"465 Scott Club Apt. 933, Port Melissahaven, CA 91349",Wrightberg,SC
PR007,"Roberts, George and Bell",TPC,"420 Roman Village Apt. 965, Turnerberg, LA 92380",Michaelfurt,OR
PR008,Dominguez-Mason,Agent,"63482 Lindsey Path, Starkview, ME 60297",Port Jessicaview,UT
PR009,Smith PLC,TPC,"32925 Smith Shoals Apt. 092, Suzannebury, NM 97276",Micheleland,NE
PR010,Lyons and Sons,Agent,"3635 Laura Parks Apt. 998, Willisbury, AL 07599",Merrittton,SD
PR011,"Galvan, Shaw and Barnes",TPC,"052 Werner Shoals, Toddfort, MA 35834",South Lindaburgh,CT
PR012,"Green, Espinoza and Franklin",Agent,"621 Mary Summit, Phillipsville, WV 56307",Joshuaville,MI
PR013,"Bryan, Pham and Smith",Agent,"66705 Christopher Lock, North Jason, AK 06683",Andersonport,MO
PR014,"Brown, Copeland and Johns",Agent,"392 Barbara Heights, Johnnyfurt, AL 83909",New Kimland,AL
PR015,"Mitchell, Barton and Wall",TPC,"0525 Christopher Fords, Shannonfort, ND 69503",North Lesliefurt,MO
PR016,"Castillo, Simmons and Jones",TPC,"521 Eric Lights Apt. 184, Michaelfort, OR 42336",Huntbury,NY
PR017,Hardy LLC,Hospital,"91715 Wang Gardens, New Williamton, MI 05710",Hectorview,NJ
PR018,Smith-Wong,TPC,"520 Fox Expressway Suite 497, North Jasmine, PA 88434",New Scott,MD
PR019,Bradley-Grimes,TPC,"3564 Jason Garden Suite 739, Claireberg, IA 19365",Andreaside,VT
PR020,"Wilson, Weeks and Castillo",Hospital,"318 Conway Hill Suite 483, Meganmouth, AK 06179",East Cassandra,OH
PR021,Miller-Mason,Hospital,"6010 Bird Track Suite 987, Amychester, NJ 49649",Lake Christopher,WY
PR022,"Davis, Fritz and Bond",Agent,"919 Andrew Turnpike Apt. 419, Mckinneyshire, NC 26431",Kennethburgh,IN
PR023,Anderson and Sons,TPC,"94312 Dickson Falls Apt. 905, Gregoryview, VA 92174",Latoyabury,FL
PR024,Yang Ltd,TPC,"78085 Elizabeth Motorway, Elizabethmouth, SD 84038",Emmaborough,MI
PR025,Nelson-Ryan,Agent,"Unit 3486 Box 1261, DPO AP 85920",New Melissamouth,NE
PR026,Kemp-Herrera,Agent,"147 Bennett Center, Marissafurt, VA 50826",Port Jennifer,OK
PR027,Douglas LLC,Hospital,"73611 Martinez Spring Suite 203, East Cody, MT 09631",New James,CO
PR028,Middleton Inc,TPC,"989 Burke Way, Emilyfort, SC 79519",West Michaelborough,SD
PR029,Villegas Group,Hospital,"23771 Huff Highway, Murphyport, TN 12124",Port Tylerland,DC
PR030,Dorsey-Allen,Agent,"85218 Flores Stream Apt. 533, Adriennechester, VA 97185",Fosterberg,CA
PR031,Soto-Moore,TPC,"2929 Baker Forest Apt. 227, Gileston, WV 62130",Lake Michaelville,NM
PR032,Meyer Inc,Hospital,"4948 Martin Road, Lake Lynnhaven, NM 85722",North Jeremy,PA
PR033,"Wang, Thomas and Walsh",Agent,"14149 Ray Green, Braunland, NV 08183",Marvinchester,AK
PR034,Delgado-Lewis,TPC,"83750 Fisher Path, Lake Martin, SD 70398",Bradshawport,NV
PR035,"Reid, Young and Holland",Agent,"PSC 4152, Box 7067, APO AE 83278",Williamchester,RI
PR036,"Manning, Lee and Monroe",TPC,"437 Baker Lodge Apt. 974, Lake Alexis, KS 93365",Lake Anthonyport,RI
PR037,"Knapp, Rivera and Chan",TPC,"57725 Sweeney Lodge, Brandyland, NV 17673",North Stefaniehaven,UT
PR038,Pena-Young,Agent,"0492 Ramirez Crossing, Aaronberg, CO 44974",Shaunborough,MN
PR039,"Duncan, Green and Jackson",Hospital,"01534 Walter Hollow, North Amyport, AR 32723",Lake Franklinburgh,NH
PR040,Strong-Benson,Hospital,"601 Kyle Roads, Clarkfurt, NH 85059",Jacobtown,MT
PR041,"Hall, Reed and Edwards",TPC,"454 Jacob Forges Suite 505, Howellport, IA 03255",South Jessicaburgh,MS
PR042,"Guzman, Arnold and Johnson",Hospital,"5039 Carlos Curve Apt. 886, Jaredchester, ND 63045",Jocelyntown,RI
PR043,Decker-Camacho,Hospital,"8410 Michael Row Suite 634, Bonillaside, SC 57507",Emilyberg,TX
PR044,Hardin-Foster,Hospital,"PSC 9947, Box 8546, APO AP 85213",West Benjamin,NV
PR045,Jones-Perez,Hospital,"95227 Kimberly Fall Apt. 320, Leonardburgh, MO 58226",Susanton,NJ
PR046,Huang Inc,Hospital,"444 Johnson Viaduct Suite 571, Port Debraport, NH 83547",Amyborough,CA
PR047,Williams-Norton,Agent,"4000 Eric Ranch, South Debra, DC 03151",Port Craig,CA
PR048,"Waters, Wilson and Hoover",Hospital,"USCGC Miller, FPO AA 94561",Benitezburgh,CT
PR049,Wyatt Ltd,Agent,"80831 Kemp Pines, Annashire, MO 40702",New Heather,PA
PR050,Horn-Levy,Agent,"500 Douglas Streets Apt. 221, Navarroberg, KS 18700",East Samanthastad,WA
PR051,Gonzalez-Chen,Hospital,"45319 Michael Locks Apt. 468, Anthonymouth, MO 04924",Medinaburgh,KS
PR052,Garner LLC,Hospital,"604 Diana Viaduct Apt. 458, East Tylershire, OR 10193",Mitchellton,AL
PR053,Lindsey and Sons,TPC,"98308 Shawn Plains Suite 995, Michaeltown, MN 24886",Boothbury,TX
PR054,"Atkins, Trujillo and Goodman",Agent,"039 Gutierrez Lock Apt. 266, Wilcoxborough, CA 92390",New Aaron,WA
PR055,Garcia and Sons,Agent,"8658 Henry Crest Suite 954, Jenniferfurt, NY 03556",Pinedahaven,ID
PR056,Nelson-Douglas,TPC,"68140 Trevor Valleys, Vaughanstad, NJ 69172",Petersfort,HI
PR057,"Fischer, Lawson and Clark",Agent,"29727 Mathis Wall, South Kimberly, KS 64890",Jennabury,AZ
PR058,Nielsen-Baker,TPC,"2822 Sarah Fields, North Tracyland, NC 07125",Lake Steven,OK
PR059,Miller-Kelly,TPC,"0511 Kirk Inlet Suite 207, Sullivanborough, MT 35472",Reynoldsfort,MS
PR060,Patterson and Sons,Hospital,"1275 Carter Valleys, Cooperburgh, DC 92892",Lindafort,CT
PR061,"Willis, Wallace and Stewart",TPC,"45116 Blake Inlet Suite 034, East Melanie, NJ 32055",Lake Alexandraview,VT
PR062,Williams Ltd,Hospital,"2201 Crystal Village Suite 914, New Beverlyborough, WA 40101",Barrerahaven,UT
PR063,Gallagher-Sims,TPC,"2213 Lowe Motorway Apt. 586, Stephenton, MI 23485",Perezbury,DC
PR064,Hamilton-Ward,TPC,"33985 Dalton Radial Suite 844, New Gabrielleburgh, ID 66100",West Scottville,NH
PR065,"Mcgrath, Hoffman and Hart",TPC,"5953 Braun Drive Apt. 720, New Melissaberg, DE 07704",Rebeccaborough,CA
PR066,"Williams, Hall and Thompson",Hospital,"895 Clark Stravenue Apt. 939, South Joannchester, WI 26868",New Daisymouth,KY
PR067,Waters-Chavez,TPC,"4847 Morales Isle Suite 403, Mullinsfurt, WA 97462",East Thomas,RI
PR068,Miller LLC,Agent,"271 Giles Mews, North Megan, NC 05512",Port Julieville,OR
PR069,Thomas and Sons,Hospital,"16725 Catherine Track Suite 941, South Mary, WA 25206",East Sandy,KY
PR070,"Nguyen, Griffin and Page",Agent,"0035 Wilkerson Unions, Sarashire, MA 09087",Franklinport,MS
PR071,"Brown, Rivera and Spence",TPC,"92289 Frazier Motorway Apt. 647, Anthonytown, NH 15088",Port Lori,ME
PR072,"Moore, Mcbride and Smith",TPC,"0429 Christian Way, Kaneside, WI 18675",Underwoodmouth,UT
PR073,"Ward, Garza and Li",Agent,"73065 Kelly Glen, Kerrton, NV 57319",Port Jillian,AL
PR074,"Weiss, Blair and Ritter",Agent,"95422 Gonzalez Crest Suite 624, Jenniferburgh, MO 04130",Port Jacobfurt,CO
PR075,Rhodes and Sons,Agent,"7891 Lisa Estate, Port Susanview, ND 08480",Joneston,ID
PR076,Vasquez Ltd,TPC,"912 Singleton Valley Apt. 954, New Kevin, MT 46905",West Sydneystad,CT
PR077,Elliott-Bell,TPC,"63697 Hess Extensions Suite 810, Port Christopherfurt, PA 23472",Lake Amy,AZ
PR078,Sullivan-Campbell,Hospital,"568 Sandra Valleys, Caitlinton, NM 67728",Port Mariamouth,VA
PR079,Bradley and Sons,Hospital,"5542 Barbara Mall, Brianfurt, DE 99692",Martinfurt,IN
PR080,Gill-Anderson,TPC,"98338 Tucker Ports Apt. 812, West Anthony, DC 81656",New Robert,WV
PR081,Taylor-Robertson,Hospital,"0394 Matthew Cove Suite 754, West Heidistad, ID 45136",East Tiffany,ID
PR082,"Gray, Nichols and King",TPC,"0808 Cohen Glens Apt. 841, New Theresaside, HI 19821",West Jessicaport,NM
PR083,Wright-Hendricks,Hospital,"PSC 9317, Box 3564, APO AA 14040",South Lisa,NY
PR084,Brown Group,Agent,"9472 Williams Spurs Apt. 792, Port Danielfurt, LA 82522",South Sherishire,ND
PR085,Knight Group,TPC,"Unit 6853 Box 3211, DPO AP 79832",West Michael,IA
PR086,Waters-Velazquez,TPC,"2052 William Rest, North Jessica, OH 14122",Millsfort,MA
PR087,"Davis, Williams and Buckley",Agent,"95417 Benjamin Court Suite 454, Smithmouth, IA 46752",Tiffanyfurt,AK
PR088,Hanna-Carpenter,Agent,"150 Thomas Village, North Diana, LA 26321",Johnshire,WV
PR089,Contreras LLC,Hospital,"17463 Jessica Mission Apt. 202, North Mitchellton, IN 30145",Scottshire,MN
PR090,"Pena, Edwards and Pena",Agent,"23312 Bob Points, New Marychester, SD 59471",Smithhaven,MD
PR091,"Boyd, Martinez and Evans",Agent,"807 Sara Greens Suite 159, Sydneyhaven, NV 59047",New Lisamouth,CA
PR092,"Graham, Peterson and Smith",Agent,"183 Sharon Brook Apt. 471, South Joyceview, NY 40003",Jamesfurt,NV
PR093,Parker-Smith,Agent,"51267 Cervantes Harbors Apt. 287, Greenville, TX 23107",Port Johnmouth,AR
PR094,Santiago-Thompson,Agent,"88454 Jones Viaduct Suite 079, West Rachel, UT 35160",Smithburgh,MI
PR095,Wilson Ltd,Agent,"9050 Stephen Glen Apt. 271, Hoffmanview, DC 08154",West Rodneyshire,CA
PR096,Olson-Morgan,Hospital,"837 Erika Light, Bradborough, WA 15467",North Lori,MD
PR097,Yates and Sons,Hospital,"2742 Michael Spring Suite 543, Smithville, PA 43768",North Bob,GA
PR098,"Moore, Taylor and Kelley",TPC,"4590 Brianna Branch, Kimberlystad, CO 75825",Michaelchester,MN
PR099,"King, Hernandez and Huff",Hospital,"159 Christina Knolls, Taylormouth, MO 55366",Connorberg,WY
PR100,Rogers Inc,Hospital,"5263 Eric Mount Suite 930, Derekmouth, OK 12916",South Keithborough,AL
